[{"OBJECT_NAME":"GHGSAT-C4","OBJECT_ID":"2022-057Q","EPOCH":"2026-03-09T22:58:28.655904","MEAN_MOTION":15.3293316,"ECCENTRICITY":0.0007552,"INCLINATION":97.6357,"RA_OF_ASC_NODE":210.0193,"ARG_OF_PERICENTER":100.0033,"MEAN_ANOMALY":260.2061,"EPHEMERIS_TYPE":0,"CLASSIFICATION_TYPE":"U","NORAD_CAT_ID":52746,"ELEMENT_SET_NO":999,"REV_AT_EPOCH":21033,"BSTAR":0.00030289005,"MEAN_MOTION_DOT":9.562e-5,"MEAN_MOTION_DDOT":0},{"OBJECT_NAME":"STARLINK-30295","OBJECT_ID":"2023-124W","EPOCH":"2026-03-09T16:33:04.419936","MEAN_MOTION":15.30187499,"ECCENTRICITY":0.00010099,"INCLINATION":53.1601,"RA_OF_ASC_NODE":207.0693,"ARG_OF_PERICENTER":107.1458,"MEAN_ANOMALY":252.9653,"EPHEMERIS_TYPE":0,"CLASSIFICATION_TYPE":"U","NORAD_CAT_ID":57683,"ELEMENT_SET_NO":999,"REV_AT_EPOCH":14356,"BSTAR":-2.568348e-6,"MEAN_MOTION_DOT":-4.35e-6,"MEAN_MOTION_DDOT":0}]
